TURKSAT 4B              
1 40984U 15060A   22233.52089017  .00000110  00000+0  00000+0 0  9991
2 40984   0.0306 286.3445 0002006 215.3378  65.6500  1.00269403 25111
CHINASAT 2C (ZX 2C)     
1 41021U 15063A   22233.53152860 -.00000328  00000+0  00000+0 0  9997
2 41021   0.0429 278.4113 0001230 268.9251  77.2639  1.00270382 25015
GSAT-15                 
1 41028U 15065A   22233.09909271 -.00000263  00000+0  00000+0 0  9991
2 41028   0.0644 280.5320 0002723 182.9362 355.1101  1.00272250 24816
BADR-7 (ARABSAT-6B)     
1 41029U 15065B   22233.51609414  .00000140  00000+0  00000+0 0  9998
2 41029   0.0506 250.6371 0006090 326.1568 324.7837  1.00270756 24771
LAOSAT 1                
1 41034U 15067A   22233.39943369 -.00000347  00000+0  00000+0 0  9992
2 41034   0.0195 331.4164 0001492 137.2103 133.3687  1.00274049 24862
TELSTAR 12V             
1 41036U 15068A   22233.43615380 -.00000123  00000+0  00000+0 0  9991
2 41036   0.0127 105.9830 0002039  49.0620 316.6906  1.00271976 24636
CHINASAT 1C (ZX 1C)     
1 41103U 15073A   22233.59884729 -.00000155  00000+0  00000+0 0  9999
2 41103   3.5526  84.5819 0001850  53.2806 128.8905  1.00269154 24664
ELEKTRO-L 2             
1 41105U 15074A   22233.43606660 -.00000122  00000+0  00000+0 0  9995
2 41105   3.1474  87.3918 0002544  90.4315 294.4373  1.00272058 24525
COSMOS 2513             
1 41121U 15075A   22233.16815539 -.00000143  00000+0  00000+0 0  9994
2 41121   0.0445 113.0620 0002384  30.6955 326.4884  1.00271976 24534
EXPRESS-AMU1            
1 41191U 15082A   22233.51809975  .00000151  00000+0  00000+0 0  9993
2 41191   0.0118 121.9895 0002443  38.4749  31.9588  1.00269435 24270
GAOFEN 4                
1 41194U 15083A   22233.51145951 -.00000339  00000+0  00000+0 0  9993
2 41194   0.0591 270.5427 0004192 272.9690  76.1172  1.00269758 24529
BELINTERSAT-1           
1 41238U 16001A   22233.52115177  .00000102  00000+0  00000+0 0  9998
2 41238   0.0392 286.1072 0001392 199.5194  83.3102  1.00269871 24246
IRNSS-1E                
1 41241U 16003A   22232.02630281 -.00000314  00000+0  00000+0 0  9992
2 41241  30.1160  83.6250 0019611 177.7848 188.0802  1.00265769 24075
EUTELSAT 9B             
1 41310U 16005A   22233.38799420  .00000057  00000+0  00000+0 0  9995
2 41310   0.0407  72.6367 0003279 141.4590 264.2430  1.00273438 24126
SES-9                   
1 41380U 16013A   22233.38897840 -.00000350  00000+0  00000+0 0  9993
2 41380   0.0500 284.3743 0001678 201.1728  92.4652  1.00271625 23442
EUTELSAT 65 WEST A      
1 41382U 16014A   22233.49795646 -.00000280  00000+0  00000+0 0  9991
2 41382   0.0527 351.0509 0001891 161.2206 291.5749  1.00273673 23555
IRNSS-1F                
1 41384U 16015A   22233.04146480  .00000153  00000+0  00000+0 0  9999
2 41384   2.2651 151.9860 0017653 183.4718  41.3594  1.00265257 23663
BEIDOU IGSO-6           
1 41434U 16021A   22233.45836749 -.00000133  00000+0  00000+0 0  9990
2 41434  58.1956  52.1583 0044384 214.9580 323.5594  1.00270227 23487
IRNSS-1G                
1 41469U 16027A   22233.53676063 -.00000340  00000+0  00000+0 0  9994
2 41469   2.1898 154.7726 0004079 336.7890 161.0938  1.00274113 23172
JCSAT-2B                
1 41471U 16028A   22232.15952324 -.00000170  00000+0  00000+0 0  9993
2 41471   0.0166 116.4191 0001801  29.8083  33.6562  1.00273317 23087
THAICOM 8               
1 41552U 16031A   22233.52655819 -.00000126  00000+0  00000+0 0  9999
2 41552   0.0625  60.6394 0002519  34.2478 143.0303  1.00271218 22724
INTELSAT 31 (IS-31)     
1 41581U 16035A   22232.84626272 -.00000155  00000+0  00000+0 0  9992
2 41581   0.0159 190.1821 0001405  50.3860 298.1593  1.00270880 22692
BEIDOU-2 G7             
1 41586U 16037A   22233.53610649 -.00000359  00000+0  00000+0 0  9993
2 41586   1.5145  67.2423 0007919 358.6325 207.4513  1.00272037 22798
ABS-2A (MONGOLSAT-1)    
1 41588U 16038A   22233.16710899 -.00000089  00000+0  00000+0 0  9993
2 41588   0.0075  88.7907 0001829 327.1029  48.4364  1.00272135 22704
EUTELSAT 117 WEST B     
1 41589U 16038B   22232.36924492 -.00000016  00000+0  00000+0 0  9991
2 41589   0.0094 210.5070 0000221 206.2431 287.8555  1.00271946 22666
BRISAT                  
1 41591U 16039A   22233.42001973 -.00000201  00000+0  00000+0 0  9999
2 41591   0.0084 143.1379 0002104  13.9245 114.3482  1.00272153 22618
ECHOSTAR 18             
1 41592U 16039B   22233.49865406 -.00000286  00000+0  00000+0 0  9999
2 41592   0.0155 115.4445 0001538  49.0779 283.4223  1.00272664 22625
MUOS-5                  
1 41622U 16041A   22233.54795981 -.00000153  00000+0  00000+0 0  9995
2 41622   5.4618 300.3730 0201752 236.7989 244.8610  1.00272352 23099
TIANTONG-1 1            
1 41725U 16048A   22233.53109259 -.00000321  00000+0  00000+0 0  9999
2 41725   2.2594   1.0647 0001424 303.2805 318.0230  1.00268263 22271
JCSAT-16                
1 41729U 16050A   22233.52943580 -.00000259  00000+0  00000+0 0  9998
2 41729   0.0336  93.5277 0003072 156.4100   3.4783  1.00271296 22073
USA 270                 
1 41744U 16052A   22227.10498112 -.00000356  00000+0  00000+0 0  9998
2 41744   0.5977  95.4480 0000560 302.9218  88.9368  1.00410932  4686
USA 271                 
1 41745U 16052B   22231.01157367  .00000062  00000+0  00000+0 0  9991
2 41745   0.5723  95.5552 0000802  20.3597 275.0894  1.00174301  4722
INTELSAT 36 (IS-36)     
1 41747U 16053A   22233.16580098 -.00000029  00000+0  00000+0 0  9997
2 41747   0.0144  63.0010 0002879 296.1418  98.4988  1.00272101 21958
INTELSAT 33E (IS-33E)   
1 41748U 16053B   22233.52289576  .00000044  00000+0  00000+0 0  9991
2 41748   0.0051 346.5802 0001804 186.6283  44.8369  1.00273644 22226
INSAT-3DR               
1 41752U 16054A   22233.52568618 -.00000082  00000+0  00000+0 0  9997
2 41752   0.0685  96.9629 0011368 166.9127 329.2004  1.00272491 21821
GSAT-18                 
1 41793U 16060A   22233.52568618 -.00000082  00000+0  00000+0 0  9999
2 41793   0.0360 103.2804 0002006 342.2392 147.5346  1.00272889 21545
SKY MUSTER 2 (NBN1B)    
1 41794U 16060B   22233.56208564 -.00000249  00000+0  00000+0 0  9990
2 41794   0.0190 217.3663 0001467 299.4822 160.1518  1.00270765 21529
HIMAWARI-9              
1 41836U 16064A   22233.53174466 -.00000279  00000+0  00000+0 0  9994
2 41836   0.0081 288.8210 0000543 209.7292 163.4605  1.00273877 21198
SHIJIAN-17 (SJ-17)      
1 41838U 16065A   22233.75312479 -.00000297  00000+0  00000+0 0  9999
2 41838   2.1882  88.9193 0001025 180.8030  72.6853  1.00142074 21231
GOES 16                 
1 41866U 16071A   22233.49595084 -.00000252  00000+0  00000+0 0  9994
2 41866   0.0606 273.6800 0000706 305.1003 214.3412  1.00271185 21117
TIANLIAN 1-04           
1 41869U 16072A   22233.52729910  .00000026  00000+0  00000+0 0  9997
2 41869   0.1490 259.2176 0028277 227.4935 209.7647  1.00268897 21328
WGS F8 (USA 272)        
1 41879U 16075A   22233.56876609 -.00000207  00000+0  00000+0 0  9995
2 41879   0.0191  93.3745 0000321  42.8595 188.1732  1.00270133 20832
FENGYUN 4A              
1 41882U 16077A   22233.61121417 -.00000333  00000+0  00000+0 0  9997
2 41882   0.1342  83.9063 0002957  39.0147 171.5413  1.00266038 20988
ECHOSTAR 19             
1 41893U 16079A   22233.48682649 -.00000143  00000+0  00000+0 0  9994
2 41893   0.0143 117.5200 0001779  48.9994 241.4114  1.00272818 20714
JCSAT-110A (JCSAT-15)   
1 41903U 16082A   22233.53745139 -.00000356  00000+0  00000+0 0  9996
2 41903   0.0149 115.1258 0001081  81.3637  76.8838  1.00271432 20769
STAR ONE D1             
1 41904U 16082B   22233.54146903 -.00000215  00000+0  00000+0 0  9996
2 41904   0.0175  91.1271 0002083  54.4081 295.2290  1.00273237 20779
TJS-2                   
1 41911U 17001A   22233.52420377 -.00000011  00000+0  00000+0 0  9998
2 41911   0.3015 283.9744 0005658 278.8361  22.1884  1.00271967 20733
SBIRS GEO-4 (USA 273)   
1 41937U 17004A   22233.55741398  .00000128  00000+0  00000+0 0  9999
2 41937   2.2137 319.7882 0002062 199.4300 211.8889  1.00272807 20618
HISPASAT 36W-1          
1 41942U 17006A   22233.39910600 -.00000249  00000+0  00000+0 0  9998
2 41942   0.0296 308.9374 0001055 201.9911 286.4415  1.00271910 20224
TELKOM 3S               
1 41944U 17007A   22233.53440622 -.00000367  00000+0  00000+0 0  9990
2 41944   0.0132 109.4049 0002236  34.6189 136.1747  1.00272968 20142
INTELSAT 32E (IS-32E)   
1 41945U 17007B   22233.50231649 -.00000273  00000+0  00000+0 0  9991
2 41945   0.0166 120.9571 0000298 263.0413  83.4568  1.00270903 20245
ECHOSTAR 23             
1 42070U 17014A   22233.42479895 -.00000061  00000+0  00000+0 0  9992
2 42070   0.0176 112.2767 0002007  37.0907 223.3767  1.00272029 19924
WGS F9 (USA 275)        
1 42075U 17016A   22233.39910601 -.00000101  00000+0  00000+0 0  9995
2 42075   0.0085 105.6882 0000358 148.5412 207.1488  1.00270730 19914
SES-10                  
1 42432U 17017A   22233.49760766 -.00000277  00000+0  00000+0 0  9993
2 42432   0.0170  86.5941 0002710  67.5884 287.8454  1.00271511 19732
CHINASAT 16 (SJ-13)     
1 42662U 17018A   22233.60468971 -.00000357  00000+0  00000+0 0  9994
2 42662   0.0691  93.5640 0006561 128.3741  76.1793  1.00273712 19746
KOREASAT 7              
1 42691U 17023A   22233.53405741 -.00000367  00000+0  00000+0 0  9991
2 42691   0.0273  64.8782 0001189 103.9237 109.1812  1.00271418 19393
SGDC                    
1 42692U 17023B   22233.29243111 -.00000254  00000+0  00000+0 0  9991
2 42692   0.0144  73.4032 0002090  81.6530 204.9468  1.00273030 19411
GSAT-9                  
1 42695U 17024A   22233.53030779 -.00000291  00000+0  00000+0 0  9997
2 42695   0.1156 274.6871 0002062 245.3300  98.0888  1.00269648 19314
INMARSAT 5-F4           
1 42698U 17025A   22233.21924237  .00000070  00000+0  00000+0 0  9991
2 42698   0.0161 120.4055 0000837 127.1555 217.3617  1.00273641 19270
